[{"OBJECT_NAME":"STARLINK-4557","OBJECT_ID":"2022-097AW","EPOCH":"2026-03-09T11:13:24.248064","MEAN_MOTION":15.08842876,"ECCENTRICITY":0.00012694,"INCLINATION":53.2167,"RA_OF_ASC_NODE":104.8783,"ARG_OF_PERICENTER":91.0838,"MEAN_ANOMALY":269.03,"EPHEMERIS_TYPE":0,"CLASSIFICATION_TYPE":"U","NORAD_CAT_ID":53432,"ELEMENT_SET_NO":999,"REV_AT_EPOCH":19875,"BSTAR":-4.6281808e-5,"MEAN_MOTION_DOT":-1.024e-5,"MEAN_MOTION_DDOT":0},{"OBJECT_NAME":"ARIANE 2 DEB","OBJECT_ID":"1989-006AE","EPOCH":"2026-03-09T11:01:39.549792","MEAN_MOTION":2.33326495,"ECCENTRICITY":0.71899688,"INCLINATION":8.4856,"RA_OF_ASC_NODE":298.3378,"ARG_OF_PERICENTER":347.6095,"MEAN_ANOMALY":1.5201,"EPHEMERIS_TYPE":0,"CLASSIFICATION_TYPE":"U","NORAD_CAT_ID":27650,"ELEMENT_SET_NO":999,"REV_AT_EPOCH":20579,"BSTAR":0.00062968862,"MEAN_MOTION_DOT":2.95e-6,"MEAN_MOTION_DDOT":0}]
